STARLINK-31013
1 58526U 23191U   26092.38127912  .00044169  00000+0  29061-2 0  9997
2 58526  43.0015 335.6791 0004748 234.9060 125.1339 15.06870328129020
